<?xml version="1.0" encoding="UTF-8"?>
<kml xmlns="http://www.opengis.net/kml/2.2" xmlns:gx="http://www.google.com/kml/ext/2.2">
    <Document id="1">
        <Style id="6">
            <PolyStyle id="7">
                <color>fffdf7f1</color>
                <colorMode>normal</colorMode>
                <fill>1</fill>
                <outline>0</outline>
            </PolyStyle>
        </Style>
        <Placemark id="3">
            <styleUrl>#6</styleUrl>
            <Polygon id="2">
                <outerBoundaryIs>
                    <LinearRing id="4">
                        <coordinates>9.695979899497486,56.78886850646212,0.0 9.695979899497486,56.80570045522111,0.0 9.733668341708542,56.80570045522111,0.0 9.733668341708542,56.78886850646212,0.0 9.695979899497486,56.78886850646212,0.0</coordinates>
                    </LinearRing>
                </outerBoundaryIs>
            </Polygon>
        </Placemark>
    </Document>
</kml>
